MALLIGYONG-1            
1 58400U 23179A   23341.46761252  .00004554  00000+0  20564-3 0  9992
2 58400  97.4268 226.0354 0014557 218.4818 141.5381 15.21390843  2417
